{
    "argument_of_periapsis": 0.0,
    "ascending_node_longitude": 0.0,
    "direction": "CW",
    "eccentricity": 0.00867797,
    "inclination": 0.0,
    "mass": 1.0243E26,
    "name": "neptune",
    "parent": "sun",
    "semimajor": 4498542600E3,
    "start": "periapsis"
}
